[{"OBJECT_NAME":"STARLINK-30907","OBJECT_ID":"2023-177B","EPOCH":"2026-03-20T07:18:36.988128","MEAN_MOTION":15.2756413,"ECCENTRICITY":0.0001231,"INCLINATION":43.0012,"RA_OF_ASC_NODE":290.4063,"ARG_OF_PERICENTER":255.0142,"MEAN_ANOMALY":105.0574,"EPHEMERIS_TYPE":0,"CLASSIFICATION_TYPE":"U","NORAD_CAT_ID":58352,"ELEMENT_SET_NO":999,"REV_AT_EPOCH":12994,"BSTAR":0.00010551,"MEAN_MOTION_DOT":2.641e-5,"MEAN_MOTION_DDOT":0},{"OBJECT_NAME":"STARLINK-30896","OBJECT_ID":"2023-177C","EPOCH":"2026-03-20T14:32:06.945216","MEAN_MOTION":15.2759617,"ECCENTRICITY":0.0001394,"INCLINATION":42.9994,"RA_OF_ASC_NODE":147.152,"ARG_OF_PERICENTER":267.4319,"MEAN_ANOMALY":92.6373,"EPHEMERIS_TYPE":0,"CLASSIFICATION_TYPE":"U","NORAD_CAT_ID":58353,"ELEMENT_SET_NO":999,"REV_AT_EPOCH":13150,"BSTAR":-9.4108e-5,"MEAN_MOTION_DOT":-2.852e-5,"MEAN_MOTION_DDOT":0},{"OBJECT_NAME":"STARLINK-30832","OBJECT_ID":"2023-177D","EPOCH":"2026-03-21T06:35:23.606592","MEAN_MOTION":15.26737282,"ECCENTRICITY":0.00014539,"INCLINATION":43.0019,"RA_OF_ASC_NODE":285.6392,"ARG_OF_PERICENTER":266.6055,"MEAN_ANOMALY":93.463,"EPHEMERIS_TYPE":0,"CLASSIFICATION_TYPE":"U","NORAD_CAT_ID":58354,"ELEMENT_SET_NO":999,"REV_AT_EPOCH":12994,"BSTAR":0.00014871413,"MEAN_MOTION_DOT":3.731e-5,"MEAN_MOTION_DDOT":0},{"OBJECT_NAME":"STARLINK-30903","OBJECT_ID":"2023-177E","EPOCH":"2026-03-20T07:22:17.167296","MEAN_MOTION":15.27584936,"ECCENTRICITY":0.0001418,"INCLINATION":43.003,"RA_OF_ASC_NODE":290.4362,"ARG_OF_PERICENTER":248.9484,"MEAN_ANOMALY":111.1216,"EPHEMERIS_TYPE":0,"CLASSIFICATION_TYPE":"U","NORAD_CAT_ID":58355,"ELEMENT_SET_NO":999,"REV_AT_EPOCH":12985,"BSTAR":-0.00014982,"MEAN_MOTION_DOT":-4.383e-5,"MEAN_MOTION_DDOT":0},{"OBJECT_NAME":"STARLINK-30905","OBJECT_ID":"2023-177F","EPOCH":"2026-03-21T06:39:13.857408","MEAN_MOTION":15.26763351,"ECCENTRICITY":0.0001778,"INCLINATION":43.0003,"RA_OF_ASC_NODE":284.7795,"ARG_OF_PERICENTER":257.5247,"MEAN_ANOMALY":102.5406,"EPHEMERIS_TYPE":0,"CLASSIFICATION_TYPE":"U","NORAD_CAT_ID":58356,"ELEMENT_SET_NO":999,"REV_AT_EPOCH":12994,"BSTAR":0.00058074503,"MEAN_MOTION_DOT":0.00015361,"MEAN_MOTION_DDOT":0},{"OBJECT_NAME":"STARLINK-30842","OBJECT_ID":"2023-177G","EPOCH":"2026-03-20T14:22:04.959264","MEAN_MOTION":15.24700927,"ECCENTRICITY":0.0002356,"INCLINATION":42.9977,"RA_OF_ASC_NODE":274.5162,"ARG_OF_PERICENTER":252.8155,"MEAN_ANOMALY":107.2438,"EPHEMERIS_TYPE":0,"CLASSIFICATION_TYPE":"U","NORAD_CAT_ID":58357,"ELEMENT_SET_NO":999,"REV_AT_EPOCH":13006,"BSTAR":0.0004868,"MEAN_MOTION_DOT":0.00012045,"MEAN_MOTION_DDOT":0},{"OBJECT_NAME":"STARLINK-30858","OBJECT_ID":"2023-177H","EPOCH":"2026-03-21T06:44:30.136704","MEAN_MOTION":15.26739626,"ECCENTRICITY":9.264e-5,"INCLINATION":43.0002,"RA_OF_ASC_NODE":284.8431,"ARG_OF_PERICENTER":273.4304,"MEAN_ANOMALY":86.6441,"EPHEMERIS_TYPE":0,"CLASSIFICATION_TYPE":"U","NORAD_CAT_ID":58358,"ELEMENT_SET_NO":999,"REV_AT_EPOCH":13001,"BSTAR":4.8251058e-5,"MEAN_MOTION_DOT":1.035e-5,"MEAN_MOTION_DDOT":0},{"OBJECT_NAME":"STARLINK-30878","OBJECT_ID":"2023-177J","EPOCH":"2026-03-21T04:00:00.999936","MEAN_MOTION":15.15861719,"ECCENTRICITY":0.00013973,"INCLINATION":42.9999,"RA_OF_ASC_NODE":288.6604,"ARG_OF_PERICENTER":285.8879,"MEAN_ANOMALY":260.5886,"EPHEMERIS_TYPE":0,"CLASSIFICATION_TYPE":"U","NORAD_CAT_ID":58359,"ELEMENT_SET_NO":999,"REV_AT_EPOCH":566,"BSTAR":0.11537867,"MEAN_MOTION_DOT":0.02517207,"MEAN_MOTION_DDOT":0},{"OBJECT_NAME":"STARLINK-30897","OBJECT_ID":"2023-177K","EPOCH":"2026-03-21T06:31:41.113632","MEAN_MOTION":15.02536732,"ECCENTRICITY":0.00012529,"INCLINATION":43.0031,"RA_OF_ASC_NODE":289.03,"ARG_OF_PERICENTER":265.0103,"MEAN_ANOMALY":95.0596,"EPHEMERIS_TYPE":0,"CLASSIFICATION_TYPE":"U","NORAD_CAT_ID":58360,"ELEMENT_SET_NO":999,"REV_AT_EPOCH":12995,"BSTAR":3.6857834e-5,"MEAN_MOTION_DOT":2.94e-6,"MEAN_MOTION_DDOT":0},{"OBJECT_NAME":"STARLINK-30885","OBJECT_ID":"2023-177L","EPOCH":"2026-03-21T00:00:00.999648","MEAN_MOTION":15.26717425,"ECCENTRICITY":0.00015463,"INCLINATION":43.0014,"RA_OF_ASC_NODE":286.5263,"ARG_OF_PERICENTER":268.001,"MEAN_ANOMALY":306.5751,"EPHEMERIS_TYPE":0,"CLASSIFICATION_TYPE":"U","NORAD_CAT_ID":58361,"ELEMENT_SET_NO":999,"REV_AT_EPOCH":574,"BSTAR":0.0030772573,"MEAN_MOTION_DOT":0.00083163,"MEAN_MOTION_DDOT":0},{"OBJECT_NAME":"STARLINK-30890","OBJECT_ID":"2023-177M","EPOCH":"2026-03-20T13:33:19.871712","MEAN_MOTION":15.26744274,"ECCENTRICITY":0.00010912,"INCLINATION":43.0007,"RA_OF_ASC_NODE":288.9263,"ARG_OF_PERICENTER":266.8825,"MEAN_ANOMALY":93.1902,"EPHEMERIS_TYPE":0,"CLASSIFICATION_TYPE":"U","NORAD_CAT_ID":58362,"ELEMENT_SET_NO":999,"REV_AT_EPOCH":12984,"BSTAR":3.6709883e-5,"MEAN_MOTION_DOT":7.25e-6,"MEAN_MOTION_DDOT":0},{"OBJECT_NAME":"STARLINK-30909","OBJECT_ID":"2023-177N","EPOCH":"2026-03-20T19:49:53.006880","MEAN_MOTION":15.26746948,"ECCENTRICITY":0.00018282,"INCLINATION":43.002,"RA_OF_ASC_NODE":287.4468,"ARG_OF_PERICENTER":253.2044,"MEAN_ANOMALY":106.8607,"EPHEMERIS_TYPE":0,"CLASSIFICATION_TYPE":"U","NORAD_CAT_ID":58363,"ELEMENT_SET_NO":999,"REV_AT_EPOCH":12993,"BSTAR":6.8021348e-5,"MEAN_MOTION_DOT":1.565e-5,"MEAN_MOTION_DDOT":0},{"OBJECT_NAME":"STARLINK-30904","OBJECT_ID":"2023-177P","EPOCH":"2026-03-21T06:42:34.639776","MEAN_MOTION":15.05400228,"ECCENTRICITY":0.00050074,"INCLINATION":43.0011,"RA_OF_ASC_NODE":286.526,"ARG_OF_PERICENTER":257.8531,"MEAN_ANOMALY":102.1752,"EPHEMERIS_TYPE":0,"CLASSIFICATION_TYPE":"U","NORAD_CAT_ID":58364,"ELEMENT_SET_NO":999,"REV_AT_EPOCH":12998,"BSTAR":0.0020465949,"MEAN_MOTION_DOT":0.00029768,"MEAN_MOTION_DDOT":0},{"OBJECT_NAME":"STARLINK-30918","OBJECT_ID":"2023-177Q","EPOCH":"2026-03-19T23:55:26.310720","MEAN_MOTION":15.26751277,"ECCENTRICITY":0.00014395,"INCLINATION":43.0025,"RA_OF_ASC_NODE":292.403,"ARG_OF_PERICENTER":256.8027,"MEAN_ANOMALY":103.2663,"EPHEMERIS_TYPE":0,"CLASSIFICATION_TYPE":"U","NORAD_CAT_ID":58365,"ELEMENT_SET_NO":999,"REV_AT_EPOCH":12979,"BSTAR":-3.2297112e-5,"MEAN_MOTION_DOT":-1.126e-5,"MEAN_MOTION_DDOT":0},{"OBJECT_NAME":"STARLINK-30892","OBJECT_ID":"2023-177R","EPOCH":"2026-03-20T21:35:01.740480","MEAN_MOTION":15.26744146,"ECCENTRICITY":4.9e-5,"INCLINATION":42.9994,"RA_OF_ASC_NODE":287.1333,"ARG_OF_PERICENTER":158.3503,"MEAN_ANOMALY":201.7369,"EPHEMERIS_TYPE":0,"CLASSIFICATION_TYPE":"U","NORAD_CAT_ID":58366,"ELEMENT_SET_NO":999,"REV_AT_EPOCH":12995,"BSTAR":7.1999239e-5,"MEAN_MOTION_DOT":1.673e-5,"MEAN_MOTION_DDOT":0},{"OBJECT_NAME":"STARLINK-30891","OBJECT_ID":"2023-177S","EPOCH":"2026-03-20T21:55:43.283424","MEAN_MOTION":15.26758828,"ECCENTRICITY":0.00019006,"INCLINATION":43.0002,"RA_OF_ASC_NODE":287.2409,"ARG_OF_PERICENTER":282.6975,"MEAN_ANOMALY":77.3664,"EPHEMERIS_TYPE":0,"CLASSIFICATION_TYPE":"U","NORAD_CAT_ID":58367,"ELEMENT_SET_NO":999,"REV_AT_EPOCH":12988,"BSTAR":0.00019887332,"MEAN_MOTION_DOT":5.081e-5,"MEAN_MOTION_DDOT":0}]
