STARLINK-30907          
1 58352U 23177B   26079.30459477  .00002641  00000+0  10551-3 0  9993
2 58352  43.0012 290.4063 0001231 255.0142 105.0574 15.27564130129946
STARLINK-30896          
1 58353U 23177C   26079.60563594 -.00002852  00000+0 -94108-4 0  9990
2 58353  42.9994 147.1520 0001394 267.4319  92.6373 15.27596170131505
STARLINK-30832          
1 58354U 23177D   26080.27457878  .00003731  00000+0  14871-3 0  9996
2 58354  43.0019 285.6392 0001453 266.6055  93.4630 15.26737282129945
STARLINK-30903          
1 58355U 23177E   26079.30714314 -.00004383  00000+0 -14982-3 0  9999
2 58355  43.0030 290.4362 0001418 248.9484 111.1216 15.27584936129855
STARLINK-30905          
1 58356U 23177F   26080.27724372  .00015361  00000+0  58075-3 0  9990
2 58356  43.0003 284.7795 0001778 257.5247 102.5406 15.26763351129948
STARLINK-30842          
1 58357U 23177G   26079.59866851  .00012045  00000+0  48680-3 0  9990
2 58357  42.9977 274.5162 0002356 252.8155 107.2438 15.24700927130061
STARLINK-30858          
1 58358U 23177H   26080.28090436  .00001035  00000+0  48251-4 0  9999
2 58358  43.0002 284.8431 0000926 273.4304  86.6441 15.26739626130011
STARLINK-30878          
1 58359U 23177J   26080.16667824  .02517207  00000+0  11538+0 0  9996
2 58359  42.9999 288.6604 0001397 285.8879 260.5886 15.15861719  5661
STARLINK-30897          
1 58360U 23177K   26080.27200363  .00000294  00000+0  36858-4 0  9999
2 58360  43.0031 289.0300 0001252 265.0103  95.0596 15.02536732129958
STARLINK-30885          
1 58361U 23177L   26080.00001157  .00083163  00000+0  30773-2 0  9995
2 58361  43.0014 286.5263 0001546 268.0010 306.5751 15.26717425  5745
STARLINK-30890          
1 58362U 23177M   26079.56481333  .00000725  00000+0  36710-4 0  9995
2 58362  43.0007 288.9263 0001091 266.8825  93.1902 15.26744274129846
STARLINK-30909          
1 58363U 23177N   26079.82630795  .00001565  00000+0  68021-4 0  9996
2 58363  43.0020 287.4468 0001828 253.2044 106.8607 15.26746948129938
STARLINK-30904          
1 58364U 23177P   26080.27956759  .00029768  00000+0  20466-2 0  9993
2 58364  43.0011 286.5260 0005007 257.8531 102.1752 15.05400228129983
STARLINK-30918          
1 58365U 23177Q   26078.99683230 -.00001126  00000+0 -32297-4 0  9998
2 58365  43.0025 292.4030 0001439 256.8027 103.2663 15.26751277129792
STARLINK-30892          
1 58366U 23177R   26079.89932570  .00001673  00000+0  71999-4 0  9990
2 58366  42.9994 287.1333 0000490 158.3503 201.7369 15.26744146129956
STARLINK-30891          
1 58367U 23177S   26079.91369541  .00005081  00000+0  19887-3 0  9990
2 58367  43.0002 287.2409 0001900 282.6975  77.3664 15.26758828129884
